[{"OBJECT_NAME":"STARLINK-34949","OBJECT_ID":"2025-175B","EPOCH":"2026-03-09T14:35:25.702368","MEAN_MOTION":15.05649669,"ECCENTRICITY":0.0002154,"INCLINATION":97.6024,"RA_OF_ASC_NODE":302.5064,"ARG_OF_PERICENTER":75.6789,"MEAN_ANOMALY":284.4677,"EPHEMERIS_TYPE":0,"CLASSIFICATION_TYPE":"U","NORAD_CAT_ID":65175,"ELEMENT_SET_NO":999,"REV_AT_EPOCH":3263,"BSTAR":0.00018362,"MEAN_MOTION_DOT":2.59e-5,"MEAN_MOTION_DDOT":0},{"OBJECT_NAME":"OBJECT B","OBJECT_ID":"2025-226B","EPOCH":"2026-03-09T23:02:31.139232","MEAN_MOTION":15.09715314,"ECCENTRICITY":0.00204156,"INCLINATION":97.6443,"RA_OF_ASC_NODE":147.8366,"ARG_OF_PERICENTER":114.3969,"MEAN_ANOMALY":245.9393,"EPHEMERIS_TYPE":0,"CLASSIFICATION_TYPE":"U","NORAD_CAT_ID":65939,"ELEMENT_SET_NO":999,"REV_AT_EPOCH":2260,"BSTAR":0.00038297064,"MEAN_MOTION_DOT":6.14e-5,"MEAN_MOTION_DDOT":0}]
